NORAD_CAT_ID,OBJECT_NAME,OBJECT_TYPE,EPOCH,MEAN_MOTION,ECCENTRICITY,INCLINATION,RA_OF_ASC_NODE,ARG_OF_PERICENTER,MEAN_ANOMALY,BSTAR,MEAN_MOTION_DOT,MEAN_MOTION_DDOT,TLE_LINE0,TLE_LINE1,TLE_LINE2,SEMIMAJOR_AXIS,PERIOD,APOGEE,PERIGEE,DECAYED
56791.0,STARLINK-5977,PAYLOAD,2023-09-14 22:00:00,15.51224915,0.0003541,69.9987,113.9065,270.1133,156.385,5.1328e-05,2.851e-05,0.0,0 STARLINK-5977,1 56791U 23078AA  23257.91667824  .00002851  00000-0  51328-4 0  9999,2 56791  69.9987 113.9065 0003541 270.1133 156.3850 15.51224915  6046,6791.286,92.83,415.555,410.746,0.0
56791.0,STARLINK-5977,PAYLOAD,2023-09-15 14:00:01,15.5126426,0.0003493,69.9991,112.0838,265.3877,282.9303,-0.0020191,-0.001172,0.0,0 STARLINK-5977,1 56791U 23078AA  23258.58334491 -.00117200  00000-0 -20191-2 0  9993,2 56791  69.9991 112.0838 0003493 265.3877 282.9303 15.51264260  6053,6791.171,92.828,415.408,410.664,0.0
56791.0,STARLINK-5977,PAYLOAD,2023-09-15 20:00:01,15.51406202,0.0003502,69.9992,111.4,270.0022,233.9788,-0.011077,-0.00607246,0.0,0 STARLINK-5977,1 56791U 23078AA  23258.83334491 -.00607246  00000-0 -11077-1 0  9997,2 56791  69.9992 111.4000 0003502 270.0022 233.9788 15.51406202 17176,6790.757,92.819,415.0,410.243,0.0
56791.0,STARLINK-5977,PAYLOAD,2023-09-16 04:00:00,15.51000745,0.0003371,69.9987,110.4886,270.5455,294.3107,-0.018047,-0.0096411,0.0,0 STARLINK-5977,1 56791U 23078AA  23259.16667824 -.00964110  00000-0 -18047-1 0  9993,2 56791  69.9987 110.4886 0003371 270.5455 294.3107 15.51000745 17235,6791.94,92.843,416.095,411.515,0.0
56791.0,STARLINK-5977,PAYLOAD,2023-09-16 14:00:01,15.50158611,0.0003492,69.999,109.3504,264.5679,105.4391,-0.017409,-0.00895171,0.0,0 STARLINK-5977,1 56791U 23078AA  23259.58334491 -.00895171  00000-0 -17409-1 0  9991,2 56791  69.9990 109.3504 0003492 264.5679 105.4391 15.50158611  6036,6794.4,92.894,418.637,413.892,0.0
56791.0,STARLINK-5977,PAYLOAD,2023-09-16 20:00:01,15.49672161,0.0003543,69.999,108.6681,268.1943,56.3222,-0.018139,-0.00927454,0.0,0 STARLINK-5977,1 56791U 23078AA  23259.83334491 -.00927454  00000-0 -18139-1 0  9990,2 56791  69.9990 108.6681 0003543 268.1943  56.3222 15.49672161 17336,6795.821,92.923,420.094,415.279,0.0
56791.0,STARLINK-5977,PAYLOAD,2023-09-17 14:00:01,15.48203256,0.0003301,69.9991,106.6245,263.7558,281.6174,-0.018701,-0.00909426,0.0,0 STARLINK-5977,1 56791U 23078AA  23260.58334491 -.00909426  00000-0 -18701-1 0  9998,2 56791  69.9991 106.6245 0003301 263.7558 281.6174 15.48203256  5976,6800.119,93.011,424.229,419.739,0.0
56791.0,STARLINK-5977,PAYLOAD,2023-09-17 20:00:01,15.47710038,0.0003365,69.9987,105.9444,270.4955,227.629,-0.019269,-0.00920139,0.0,0 STARLINK-5977,1 56791U 23078AA  23260.83334491 -.00920139  00000-0 -19269-1 0  9990,2 56791  69.9987 105.9444 0003365 270.4955 227.6290 15.47710038 17488,6801.564,93.041,425.718,421.14,0.0
56791.0,STARLINK-5977,PAYLOAD,2023-09-18 14:00:01,15.46247765,0.0003528,69.9992,103.9069,265.2349,88.4625,-0.020049,-0.00910827,0.0,0 STARLINK-5977,1 56791U 23078AA  23261.58334491 -.00910827  00000-0 -20049-1 0  9994,2 56791  69.9992 103.9069 0003528 265.2349  88.4625 15.46247765  5905,6805.851,93.129,430.117,425.315,0.0
56791.0,STARLINK-5977,PAYLOAD,2023-09-18 20:00:01,15.45752323,0.0003491,69.999,103.2288,268.7918,35.8975,-0.020581,-0.00918496,0.0,0 STARLINK-5977,1 56791U 23078AA  23261.83334491 -.00918496  00000-0 -20581-1 0  9993,2 56791  69.9990 103.2288 0003491 268.7918  35.8975 15.45752323 17646,6807.305,93.159,431.547,426.794,0.0
56791.0,STARLINK-5977,PAYLOAD,2023-09-18 22:00:00,15.45582463,0.0003496,69.9991,103.0027,272.1806,136.0724,-0.020348,-0.00904022,0.0,0 STARLINK-5977,1 56791U 23078AA  23261.91667824 -.00904022  00000-0 -20348-1 0  9992,2 56791  69.9991 103.0027 0003496 272.1806 136.0724 15.45582463  5959,6807.804,93.169,432.049,427.289,0.0
56791.0,STARLINK-5977,PAYLOAD,2023-09-19 20:00:01,15.43797058,0.0003383,69.9993,100.5209,270.804,193.4091,-0.022053,-0.00920367,0.0,0 STARLINK-5977,1 56791U 23078AA  23262.83334491 -.00920367  00000-0 -22053-1 0  9990,2 56791  69.9993 100.5209 0003383 270.8040 193.4091 15.43797058 17790,6813.052,93.277,437.222,432.612,0.0
56791.0,STARLINK-5977,PAYLOAD,2023-09-20 14:00:01,15.4234124,0.0003459,69.9996,98.4952,263.4462,45.7766,-0.023159,-0.00920179,0.0,0 STARLINK-5977,1 56791U 23078AA  23263.58334491 -.00920179  00000-0 -23159-1 0  9992,2 56791  69.9996  98.4952 0003459 263.4462  45.7766 15.42341240  6011,6817.339,93.365,441.562,436.845,0.0
56791.0,STARLINK-5977,PAYLOAD,2023-09-20 20:00:01,15.41830498,0.0003316,69.9995,97.8211,268.1317,348.5684,-0.023103,-0.00903712,0.0,0 STARLINK-5977,1 56791U 23078AA  23263.83334491 -.00903712  00000-0 -23103-1 0  9993,2 56791  69.9995  97.8211 0003316 268.1317 348.5684 15.41830498 17959,6818.844,93.395,442.97,438.448,0.0
56791.0,STARLINK-5977,PAYLOAD,2023-09-20 22:00:00,15.41659881,0.0003417,69.9996,97.5965,271.009,88.0814,-0.022749,-0.00886271,0.0,0 STARLINK-5977,1 56791U 23078AA  23263.91667824 -.00886271  00000-0 -22749-1 0  9996,2 56791  69.9996  97.5965 0003417 271.0090  88.0814 15.41659881  5960,6819.347,93.406,443.542,438.882,0.0
56791.0,STARLINK-5977,PAYLOAD,2023-09-21 12:00:00,15.40521912,0.0003461,69.9997,96.0261,265.0252,89.412,-0.023476,-0.00881011,0.0,0 STARLINK-5977,1 56791U 23078AA  23264.50001157 -.00881011  00000-0 -23476-1 0  9998,2 56791  69.9997  96.0261 0003461 265.0252  89.4120 15.40521912 18057,6822.705,93.475,446.931,442.209,0.0
56791.0,STARLINK-5977,PAYLOAD,2023-09-21 14:00:01,15.40389099,0.0003331,69.9998,95.8019,267.0062,189.4199,-0.025027,-0.00930691,0.0,0 STARLINK-5977,1 56791U 23078AA  23264.58334491 -.00930691  00000-0 -25027-1 0  9999,2 56791  69.9998  95.8019 0003331 267.0062 189.4199 15.40389099  6011,6823.097,93.483,447.235,442.689,0.0
56791.0,STARLINK-5977,PAYLOAD,2023-09-21 20:00:01,15.39875648,0.0003446,69.9996,95.1298,271.2078,130.9344,-0.024733,-0.0090636,0.0,0 STARLINK-5977,1 56791U 23078AA  23264.83334491 -.00906360  00000-0 -24733-1 0  9996,2 56791  69.9996  95.1298 0003446 271.2078 130.9344 15.39875648 18106,6824.614,93.514,448.83,444.127,0.0
56791.0,STARLINK-5977,PAYLOAD,2023-09-21 22:00:01,15.39700863,0.0003291,69.9996,94.9059,273.1112,230.9001,-0.024139,-0.0088152,0.0,0 STARLINK-5977,1 56791U 23078AA  23264.91668981 -.00881520  00000-0 -24139-1 0  9999,2 56791  69.9996  94.9059 0003291 273.1112 230.9001 15.39700863  5963,6825.13,93.525,449.241,444.749,0.0
56791.0,STARLINK-5977,PAYLOAD,2023-09-22 12:00:00,15.38573609,0.0003327,69.9999,93.34,266.4939,228.689,-0.025439,-0.00894131,0.0,0 STARLINK-5977,1 56791U 23078AA  23265.50001157 -.00894131  00000-0 -25439-1 0  9997,2 56791  69.9999  93.3400 0003327 266.4939 228.6890 15.38573609 18207,6828.463,93.593,452.6,448.057,0.0
56791.0,STARLINK-5977,PAYLOAD,2023-09-22 14:00:01,15.38435436,0.0003381,70.0,93.1165,264.3123,332.2749,-0.026801,-0.00934213,0.0,0 STARLINK-5977,1 56791U 23078AA  23265.58334491 -.00934213  00000-0 -26801-1 0  9995,2 56791  70.0000  93.1165 0003381 264.3123 332.2749 15.38435436  6028,6828.872,93.602,453.046,448.428,0.0
56791.0,STARLINK-5977,PAYLOAD,2023-09-22 22:00:00,15.37743118,0.0003455,69.9998,92.2229,271.2054,10.5574,-0.025703,-0.00880401,0.0,0 STARLINK-5977,1 56791U 23078AA  23265.91667824 -.00880401  00000-0 -25703-1 0  9990,2 56791  69.9998  92.2229 0003455 271.2054  10.5574 15.37743118  6013,6830.922,93.644,455.147,450.427,0.0
56791.0,STARLINK-5977,PAYLOAD,2023-09-23 04:00:00,15.37296732,0.0003384,69.9995,91.5534,269.8189,315.2847,-0.028752,-0.00963028,0.0,0 STARLINK-5977,1 56791U 23078AA  23266.16667824 -.00963028  00000-0 -28752-1 0  9992,2 56791  69.9995  91.5534 0003384 269.8189 315.2847 15.37296732 18313,6832.244,93.671,456.421,451.797,0.0
56791.0,STARLINK-5977,PAYLOAD,2023-09-23 12:00:00,15.36619351,0.000347,69.9998,90.6615,264.5588,4.3312,-0.027182,-0.00896353,0.0,0 STARLINK-5977,1 56791U 23078AA  23266.50001157 -.00896353  00000-0 -27182-1 0  9993,2 56791  69.9998  90.6615 0003470 264.5588   4.3312 15.36619351 18360,6834.252,93.712,458.488,453.745,0.0
56791.0,STARLINK-5977,PAYLOAD,2023-09-23 14:00:01,15.36482649,0.0003583,70.0,90.4387,266.9718,102.7363,-0.02878,-0.00940897,0.0,0 STARLINK-5977,1 56791U 23078AA  23266.58334491 -.00940897  00000-0 -28780-1 0  9999,2 56791  70.0000  90.4387 0003583 266.9718 102.7363 15.36482649  5911,6834.657,93.721,458.971,454.073,0.0
56791.0,STARLINK-5977,PAYLOAD,2023-09-24 04:00:01,15.35335901,0.0003481,69.9994,88.8801,269.8973,84.2878,-0.03044,-0.00957525,0.0,0 STARLINK-5977,1 56791U 23078AA  23267.16668981 -.00957525  00000-0 -30440-1 0  9990,2 56791  69.9994  88.8801 0003481 269.8973  84.2878 15.35335901 18460,6838.06,93.791,462.305,457.545,0.0
56791.0,STARLINK-5977,PAYLOAD,2023-09-24 12:00:00,15.34663038,0.0003468,69.9997,87.9909,266.5324,129.0268,-0.029014,-0.00898288,0.0,0 STARLINK-5977,1 56791U 23078AA  23267.50001157 -.00898288  00000-0 -29014-1 0  9999,2 56791  69.9997  87.9909 0003468 266.5324 129.0268 15.34663038 18512,6840.059,93.832,464.296,459.551,0.0
56791.0,STARLINK-5977,PAYLOAD,2023-09-24 14:00:01,15.3452351,0.0003357,69.9998,87.7686,267.3024,228.4896,-0.03064,-0.0094057,0.0,0 STARLINK-5977,1 56791U 23078AA  23267.58334491 -.00940570  00000-0 -30640-1 0  9996,2 56791  69.9998  87.7686 0003357 267.3024 228.4896 15.34523510  6019,6840.473,93.84,464.635,460.042,0.0
56791.0,STARLINK-5977,PAYLOAD,2023-09-24 22:00:00,15.33827988,0.0003301,69.9997,86.8803,272.7794,263.4941,-0.029013,-0.00876464,0.0,0 STARLINK-5977,1 56791U 23078AA  23267.91667824 -.00876464  00000-0 -29013-1 0  9994,2 56791  69.9997  86.8803 0003301 272.7794 263.4941 15.33827988  6028,6842.541,93.883,466.665,462.147,0.0
56791.0,STARLINK-5977,PAYLOAD,2023-09-25 04:00:00,15.33375358,0.0003302,69.9992,86.2147,271.1922,204.9055,-0.032188,-0.00951629,0.0,0 STARLINK-5977,1 56791U 23078AA  23268.16667824 -.00951629  00000-0 -32188-1 0  9996,2 56791  69.9992  86.2147 0003302 271.1922 204.9055 15.33375358 18618,6843.887,93.91,468.012,463.493,0.0
